{"type": "FeatureCollection", "features": [{"type": "Feature", "properties": {"norad_id": 32275, "name": "COSMOS 2433 (720)", "group": "glo-ops", "lat": 38.026842979232796, "lon": 121.63147079191937, "alt_km": 19131.523710976253, "timestamp": "2025-12-08T13:49:32.053457+00:00", "meta": {"OBJECT_NAME": "COSMOS 2433 (720)", "OBJECT_ID": "2007-052A", "EPOCH": "2025-12-07T22:15:39.436992", "MEAN_MOTION": 2.13103936, "ECCENTRICITY": 0.00054366, "INCLINATION": 65.6859, "RA_OF_ASC_NODE": 322.3673, "ARG_OF_PERICENTER": 253.7081, "MEAN_ANOMALY": 106.2283, "EPHEMERIS_TYPE": 0, "CLASSIFICATION_TYPE": "U", "NORAD_CAT_ID": 32275, "ELEMENT_SET_NO": 999, "REV_AT_EPOCH": 14098, "BSTAR": 0, "MEAN_MOTION_DOT": -4.9e-07, "MEAN_MOTION_DDOT": 0}, "tle": {"line1": "1 32275U 07052A   25341.92753978 -.00000049  00000+0  00000+0 0  9990", "line2": "2 32275  65.6859 322.3673 0005436 253.7081 106.2283  2.13103936140982"}}, "geometry": {"type": "Point", "coordinates": [121.63147079191937, 38.026842979232796]}}, {"type": "Feature", "properties": {"norad_id": 32276, "name": "COSMOS 2432 (719)", "group": "glo-ops", "lat": 64.5054549213635, "lon": 33.76765072683265, "alt_km": 19141.350934382954, "timestamp": "2025-12-08T13:49:32.053480+00:00", "meta": {"OBJECT_NAME": "COSMOS 2432 (719)", "OBJECT_ID": "2007-052B", "EPOCH": "2025-12-08T02:14:19.806720", "MEAN_MOTION": 2.13103088, "ECCENTRICITY": 0.00112877, "INCLINATION": 65.7017, "RA_OF_ASC_NODE": 322.4859, "ARG_OF_PERICENTER": 312.3782, "MEAN_ANOMALY": 119.1922, "EPHEMERIS_TYPE": 0, "CLASSIFICATION_TYPE": "U", "NORAD_CAT_ID": 32276, "ELEMENT_SET_NO": 999, "REV_AT_EPOCH": 14101, "BSTAR": 0, "MEAN_MOTION_DOT": -4.9e-07, "MEAN_MOTION_DDOT": 0}, "tle": {"line1": "1 32276U 07052B   25342.09328480 -.00000049  00000+0  00000+0 0  9996", "line2": "2 32276  65.7017 322.4859 0011287 312.3782 119.1922  2.13103088141014"}}, "geometry": {"type": "Point", "coordinates": [33.76765072683265, 64.5054549213635]}}, {"type": "Feature", "properties": {"norad_id": 32393, "name": "COSMOS 2434 (721)", "group": "glo-ops", "lat": 25.030245519127767, "lon": -148.6641309918422, "alt_km": 19118.808732770613, "timestamp": "2025-12-08T13:49:32.053495+00:00", "meta": {"OBJECT_NAME": "COSMOS 2434 (721)", "OBJECT_ID": "2007-065A", "EPOCH": "2025-12-08T05:21:15.731136", "MEAN_MOTION": 2.13101228, "ECCENTRICITY": 0.00044814, "INCLINATION": 64.3148, "RA_OF_ASC_NODE": 198.3559, "ARG_OF_PERICENTER": 71.0536, "MEAN_ANOMALY": 46.2753, "EPHEMERIS_TYPE": 0, "CLASSIFICATION_TYPE": "U", "NORAD_CAT_ID": 32393, "ELEMENT_SET_NO": 999, "REV_AT_EPOCH": 13970, "BSTAR": 0, "MEAN_MOTION_DOT": 5e-07, "MEAN_MOTION_DDOT": 0}, "tle": {"line1": "1 32393U 07065A   25342.22309874  .00000050  00000+0  00000+0 0  9992", "line2": "2 32393  64.3148 198.3559 0004481  71.0536  46.2753  2.13101228139704"}}, "geometry": {"type": "Point", "coordinates": [-148.6641309918422, 25.030245519127767]}}, {"type": "Feature", "properties": {"norad_id": 32395, "name": "COSMOS 2436 (723)", "group": "glo-ops", "lat": 16.80586068814433, "lon": 10.06292143476841, "alt_km": 19168.310045364364, "timestamp": "2025-12-08T13:49:32.053508+00:00", "meta": {"OBJECT_NAME": "COSMOS 2436 (723)", "OBJECT_ID": "2007-065C", "EPOCH": "2025-12-08T02:01:11.627904", "MEAN_MOTION": 2.13100022, "ECCENTRICITY": 0.00177472, "INCLINATION": 64.3236, "RA_OF_ASC_NODE": 198.4308, "ARG_OF_PERICENTER": 9.2257, "MEAN_ANOMALY": 134.6131, "EPHEMERIS_TYPE": 0, "CLASSIFICATION_TYPE": "U", "NORAD_CAT_ID": 32395, "ELEMENT_SET_NO": 999, "REV_AT_EPOCH": 13965, "BSTAR": 0, "MEAN_MOTION_DOT": 5.1e-07, "MEAN_MOTION_DDOT": 0}, "tle": {"line1": "1 32395U 07065C   25342.08416236  .00000051  00000+0  00000+0 0  9990", "line2": "2 32395  64.3236 198.4308 0017747   9.2257 134.6131  2.13100022139656"}}, "geometry": {"type": "Point", "coordinates": [10.06292143476841, 16.80586068814433]}}, {"type": "Feature", "properties": {"norad_id": 36111, "name": "COSMOS 2456 (730)", "group": "glo-ops", "lat": -4.687172855045322, "lon": -100.31321013311776, "alt_km": 19133.905084486283, "timestamp": "2025-12-08T13:49:32.053520+00:00", "meta": {"OBJECT_NAME": "COSMOS 2456 (730)", "OBJECT_ID": "2009-070A", "EPOCH": "2025-12-07T20:44:40.162272", "MEAN_MOTION": 2.13103432, "ECCENTRICITY": 0.00030434, "INCLINATION": 64.8974, "RA_OF_ASC_NODE": 77.5047, "ARG_OF_PERICENTER": 297.6461, "MEAN_ANOMALY": 61.5166, "EPHEMERIS_TYPE": 0, "CLASSIFICATION_TYPE": "U", "NORAD_CAT_ID": 36111, "ELEMENT_SET_NO": 999, "REV_AT_EPOCH": 12434, "BSTAR": 0, "MEAN_MOTION_DOT": -1.5e-07, "MEAN_MOTION_DDOT": 0}, "tle": {"line1": "1 36111U 09070A   25341.86435373 -.00000015  00000+0  00000+0 0  9997", "line2": "2 36111  64.8974  77.5047 0003043 297.6461  61.5166  2.13103432124345"}}, "geometry": {"type": "Point", "coordinates": [-100.31321013311776, -4.687172855045322]}}, {"type": "Feature", "properties": {"norad_id": 36112, "name": "COSMOS 2457 (733)", "group": "glo-ops", "lat": -40.3501323989236, "lon": 53.88881073880604, "alt_km": 19146.056440590022, "timestamp": "2025-12-08T13:49:32.053532+00:00", "meta": {"OBJECT_NAME": "COSMOS 2457 (733)", "OBJECT_ID": "2009-070B", "EPOCH": "2025-12-08T05:12:02.715840", "MEAN_MOTION": 2.13100811, "ECCENTRICITY": 0.0004735, "INCLINATION": 64.8829, "RA_OF_ASC_NODE": 77.3403, "ARG_OF_PERICENTER": 158.3782, "MEAN_ANOMALY": 240.2784, "EPHEMERIS_TYPE": 0, "CLASSIFICATION_TYPE": "U", "NORAD_CAT_ID": 36112, "ELEMENT_SET_NO": 999, "REV_AT_EPOCH": 12436, "BSTAR": 0, "MEAN_MOTION_DOT": -1.5e-07, "MEAN_MOTION_DDOT": 0}, "tle": {"line1": "1 36112U 09070B   25342.21669810 -.00000015  00000+0  00000+0 0  9993", "line2": "2 36112  64.8829  77.3403 0004735 158.3782 240.2784  2.13100811124369"}}, "geometry": {"type": "Point", "coordinates": [53.88881073880604, -40.3501323989236]}}, {"type": "Feature", "properties": {"norad_id": 36402, "name": "COSMOS 2460 (732)", "group": "glo-ops", "lat": -41.06576518138095, "lon": -62.46787540307156, "alt_km": 19129.348194864935, "timestamp": "2025-12-08T13:49:32.053544+00:00", "meta": {"OBJECT_NAME": "COSMOS 2460 (732)", "OBJECT_ID": "2010-007C", "EPOCH": "2025-12-08T05:41:00.073824", "MEAN_MOTION": 2.13106068, "ECCENTRICITY": 0.00026932, "INCLINATION": 65.5322, "RA_OF_ASC_NODE": 320.9255, "ARG_OF_PERICENTER": 274.5439, "MEAN_ANOMALY": 138.949, "EPHEMERIS_TYPE": 0, "CLASSIFICATION_TYPE": "U", "NORAD_CAT_ID": 36402, "ELEMENT_SET_NO": 999, "REV_AT_EPOCH": 12266, "BSTAR": 0, "MEAN_MOTION_DOT": -4.9e-07, "MEAN_MOTION_DDOT": 0}, "tle": {"line1": "1 36402U 10007C   25342.23680641 -.00000049  00000+0  00000+0 0  9991", "line2": "2 36402  65.5322 320.9255 0002693 274.5439 138.9490  2.13106068122668"}}, "geometry": {"type": "Point", "coordinates": [-62.46787540307156, -41.06576518138095]}}, {"type": "Feature", "properties": {"norad_id": 37867, "name": "COSMOS 2476 (744)", "group": "glo-ops", "lat": 64.96660443225767, "lon": 177.32451810686553, "alt_km": 19170.35485014703, "timestamp": "2025-12-08T13:49:32.053556+00:00", "meta": {"OBJECT_NAME": "COSMOS 2476 (744)", "OBJECT_ID": "2011-064A", "EPOCH": "2025-12-07T12:05:38.490144", "MEAN_MOTION": 2.13101284, "ECCENTRICITY": 0.0024092, "INCLINATION": 65.1595, "RA_OF_ASC_NODE": 79.3486, "ARG_OF_PERICENTER": 233.8995, "MEAN_ANOMALY": 117.1284, "EPHEMERIS_TYPE": 0, "CLASSIFICATION_TYPE": "U", "NORAD_CAT_ID": 37867, "ELEMENT_SET_NO": 999, "REV_AT_EPOCH": 10967, "BSTAR": 0, "MEAN_MOTION_DOT": -1.2e-07, "MEAN_MOTION_DDOT": 0}, "tle": {"line1": "1 37867U 11064A   25341.50391771 -.00000012  00000+0  00000+0 0  9993", "line2": "2 37867  65.1595  79.3486 0024092 233.8995 117.1284  2.13101284109676"}}, "geometry": {"type": "Point", "coordinates": [177.32451810686553, 64.96660443225767]}}, {"type": "Feature", "properties": {"norad_id": 37868, "name": "COSMOS 2477 (745)", "group": "glo-ops", "lat": -64.78801868221606, "lon": 0.29266903901019886, "alt_km": 19095.093638570175, "timestamp": "2025-12-08T13:49:32.053567+00:00", "meta": {"OBJECT_NAME": "COSMOS 2477 (745)", "OBJECT_ID": "2011-064B", "EPOCH": "2025-12-08T06:12:22.664160", "MEAN_MOTION": 2.13102704, "ECCENTRICITY": 0.0021182, "INCLINATION": 65.1663, "RA_OF_ASC_NODE": 79.4007, "ARG_OF_PERICENTER": 234.576, "MEAN_ANOMALY": 156.3219, "EPHEMERIS_TYPE": 0, "CLASSIFICATION_TYPE": "U", "NORAD_CAT_ID": 37868, "ELEMENT_SET_NO": 999, "REV_AT_EPOCH": 10969, "BSTAR": 0, "MEAN_MOTION_DOT": -1.1e-07, "MEAN_MOTION_DDOT": 0}, "tle": {"line1": "1 37868U 11064B   25342.25859565 -.00000011  00000+0  00000+0 0  9996", "line2": "2 37868  65.1663  79.4007 0021182 234.5760 156.3219  2.13102704109691"}}, "geometry": {"type": "Point", "coordinates": [0.29266903901019886, -64.78801868221606]}}, {"type": "Feature", "properties": {"norad_id": 37869, "name": "COSMOS 2475 (743)", "group": "glo-ops", "lat": -44.346615369699336, "lon": -73.72708621592574, "alt_km": 19071.7292835193, "timestamp": "2025-12-08T13:49:32.053579+00:00", "meta": {"OBJECT_NAME": "COSMOS 2475 (743)", "OBJECT_ID": "2011-064C", "EPOCH": "2025-12-07T08:11:48.953184", "MEAN_MOTION": 2.13101364, "ECCENTRICITY": 0.00262336, "INCLINATION": 65.1729, "RA_OF_ASC_NODE": 79.4516, "ARG_OF_PERICENTER": 248.5614, "MEAN_ANOMALY": 114.7737, "EPHEMERIS_TYPE": 0, "CLASSIFICATION_TYPE": "U", "NORAD_CAT_ID": 37869, "ELEMENT_SET_NO": 999, "REV_AT_EPOCH": 10968, "BSTAR": 0, "MEAN_MOTION_DOT": -1.3e-07, "MEAN_MOTION_DDOT": 0}, "tle": {"line1": "1 37869U 11064C   25341.34153881 -.00000013  00000+0  00000+0 0  9996", "line2": "2 37869  65.1729  79.4516 0026233 248.5614 114.7737  2.13101364109688"}}, "geometry": {"type": "Point", "coordinates": [-73.72708621592574, -44.346615369699336]}}]}